CCSDS_OMM_VERS = 2.0
CREATION_DATE  = 
ORIGINATOR     = 

OBJECT_NAME    = STARLINK-35858
OBJECT_ID      = 2025-280N
CENTER_NAME    = EARTH
REF_FRAME      = TEME
TIME_SYSTEM    = UTC
MEAN_ELEMENT_THEORY = SGP/SGP4

EPOCH          = 2025-12-28T06:17:21.422400
MEAN_MOTION    = 15.52582349
ECCENTRICITY   = .00033524
INCLINATION    = 70.0000
RA_OF_ASC_NODE = 155.8723
ARG_OF_PERICENTER = 270.3593
MEAN_ANOMALY   = 89.7210

EPHEMERIS_TYPE = 0
CLASSIFICATION_TYPE = U
NORAD_CAT_ID   = 66833
ELEMENT_SET_NO = 999
REV_AT_EPOCH   = 534
BSTAR          = .28272305E-2
MEAN_MOTION_DOT = .178124E-2
MEAN_MOTION_DDOT = 0

CCSDS_OMM_VERS = 2.0
CREATION_DATE  = 
ORIGINATOR     = 

OBJECT_NAME    = STARLINK-35840
OBJECT_ID      = 2025-280P
CENTER_NAME    = EARTH
REF_FRAME      = TEME
TIME_SYSTEM    = UTC
MEAN_ELEMENT_THEORY = SGP/SGP4

EPOCH          = 2025-12-28T00:00:02.000160
MEAN_MOTION    = 15.52570768
ECCENTRICITY   = .00033072
INCLINATION    = 69.9999
RA_OF_ASC_NODE = 156.5869
ARG_OF_PERICENTER = 277.3529
MEAN_ANOMALY   = 60.5582

EPHEMERIS_TYPE = 0
CLASSIFICATION_TYPE = U
NORAD_CAT_ID   = 66834
ELEMENT_SET_NO = 999
REV_AT_EPOCH   = 534
BSTAR          = -.17543162E-2
MEAN_MOTION_DOT = -.106857E-2
MEAN_MOTION_DDOT = 0

CCSDS_OMM_VERS = 2.0
CREATION_DATE  = 
ORIGINATOR     = 

OBJECT_NAME    = STARLINK-35890
OBJECT_ID      = 2025-280Q
CENTER_NAME    = EARTH
REF_FRAME      = TEME
TIME_SYSTEM    = UTC
MEAN_ELEMENT_THEORY = SGP/SGP4

EPOCH          = 2025-12-28T06:00:02.000160
MEAN_MOTION    = 15.52641794
ECCENTRICITY   = .00036155
INCLINATION    = 70.0000
RA_OF_ASC_NODE = 155.9009
ARG_OF_PERICENTER = 272.5296
MEAN_ANOMALY   = 24.1411

EPHEMERIS_TYPE = 0
CLASSIFICATION_TYPE = U
NORAD_CAT_ID   = 66835
ELEMENT_SET_NO = 999
REV_AT_EPOCH   = 538
BSTAR          = -.33617214E-1
MEAN_MOTION_DOT = -.1841233E-1
MEAN_MOTION_DDOT = 0

CCSDS_OMM_VERS = 2.0
CREATION_DATE  = 
ORIGINATOR     = 

OBJECT_NAME    = STARLINK-35838
OBJECT_ID      = 2025-280R
CENTER_NAME    = EARTH
REF_FRAME      = TEME
TIME_SYSTEM    = UTC
MEAN_ELEMENT_THEORY = SGP/SGP4

EPOCH          = 2025-12-28T00:00:02.000160
MEAN_MOTION    = 15.52749710
ECCENTRICITY   = .00034696
INCLINATION    = 70.0001
RA_OF_ASC_NODE = 156.5827
ARG_OF_PERICENTER = 277.2305
MEAN_ANOMALY   = 64.4786

EPHEMERIS_TYPE = 0
CLASSIFICATION_TYPE = U
NORAD_CAT_ID   = 66836
ELEMENT_SET_NO = 999
REV_AT_EPOCH   = 534
BSTAR          = -.10497582E-1
MEAN_MOTION_DOT = -.60423E-2
MEAN_MOTION_DDOT = 0

CCSDS_OMM_VERS = 2.0
CREATION_DATE  = 
ORIGINATOR     = 

OBJECT_NAME    = STARLINK-35729
OBJECT_ID      = 2025-280S
CENTER_NAME    = EARTH
REF_FRAME      = TEME
TIME_SYSTEM    = UTC
MEAN_ELEMENT_THEORY = SGP/SGP4

EPOCH          = 2025-12-27T14:47:07.462176
MEAN_MOTION    = 15.53075151
ECCENTRICITY   = .0004565
INCLINATION    = 70.0006
RA_OF_ASC_NODE = 157.6293
ARG_OF_PERICENTER = 276.0248
MEAN_ANOMALY   = 84.0419

EPHEMERIS_TYPE = 0
CLASSIFICATION_TYPE = U
NORAD_CAT_ID   = 66837
ELEMENT_SET_NO = 999
REV_AT_EPOCH   = 524
BSTAR          = -.98165104E-2
MEAN_MOTION_DOT = -.574104E-2
MEAN_MOTION_DDOT = 0

CCSDS_OMM_VERS = 2.0
CREATION_DATE  = 
ORIGINATOR     = 

OBJECT_NAME    = STARLINK-35886
OBJECT_ID      = 2025-280T
CENTER_NAME    = EARTH
REF_FRAME      = TEME
TIME_SYSTEM    = UTC
MEAN_ELEMENT_THEORY = SGP/SGP4

EPOCH          = 2025-12-27T19:24:48.939264
MEAN_MOTION    = 15.52093425
ECCENTRICITY   = .00031818
INCLINATION    = 70.0006
RA_OF_ASC_NODE = 157.0978
ARG_OF_PERICENTER = 273.6626
MEAN_ANOMALY   = 86.4197

EPHEMERIS_TYPE = 0
CLASSIFICATION_TYPE = U
NORAD_CAT_ID   = 66838
ELEMENT_SET_NO = 999
REV_AT_EPOCH   = 527
BSTAR          = -.16720024E-1
MEAN_MOTION_DOT = -.91895E-2
MEAN_MOTION_DDOT = 0

CCSDS_OMM_VERS = 2.0
CREATION_DATE  = 
ORIGINATOR     = 

OBJECT_NAME    = STARLINK-35717
OBJECT_ID      = 2025-280U
CENTER_NAME    = EARTH
REF_FRAME      = TEME
TIME_SYSTEM    = UTC
MEAN_ELEMENT_THEORY = SGP/SGP4

EPOCH          = 2025-12-28T00:00:02.000160
MEAN_MOTION    = 15.52674805
ECCENTRICITY   = .00036418
INCLINATION    = 70.0001
RA_OF_ASC_NODE = 156.5778
ARG_OF_PERICENTER = 278.5963
MEAN_ANOMALY   = 66.9636

EPHEMERIS_TYPE = 0
CLASSIFICATION_TYPE = U
NORAD_CAT_ID   = 66839
ELEMENT_SET_NO = 999
REV_AT_EPOCH   = 534
BSTAR          = -.69042425E-2
MEAN_MOTION_DOT = -.406266E-2
MEAN_MOTION_DDOT = 0

CCSDS_OMM_VERS = 2.0
CREATION_DATE  = 
ORIGINATOR     = 

OBJECT_NAME    = STARLINK-35837
OBJECT_ID      = 2025-280V
CENTER_NAME    = EARTH
REF_FRAME      = TEME
TIME_SYSTEM    = UTC
MEAN_ELEMENT_THEORY = SGP/SGP4

EPOCH          = 2025-12-28T06:00:02.000160
MEAN_MOTION    = 15.48957484
ECCENTRICITY   = .00032889
INCLINATION    = 69.9999
RA_OF_ASC_NODE = 155.8921
ARG_OF_PERICENTER = 269.8702
MEAN_ANOMALY   = 31.4546

EPHEMERIS_TYPE = 0
CLASSIFICATION_TYPE = U
NORAD_CAT_ID   = 66840
ELEMENT_SET_NO = 999
REV_AT_EPOCH   = 538
BSTAR          = -.41357868E-1
MEAN_MOTION_DOT = -.2004064E-1
MEAN_MOTION_DDOT = 0

CCSDS_OMM_VERS = 2.0
CREATION_DATE  = 
ORIGINATOR     = 

OBJECT_NAME    = STARLINK-35715
OBJECT_ID      = 2025-280W
CENTER_NAME    = EARTH
REF_FRAME      = TEME
TIME_SYSTEM    = UTC
MEAN_ELEMENT_THEORY = SGP/SGP4

EPOCH          = 2025-12-28T06:00:02.000160
MEAN_MOTION    = 15.48956015
ECCENTRICITY   = .00033542
INCLINATION    = 70.0004
RA_OF_ASC_NODE = 155.8900
ARG_OF_PERICENTER = 268.0355
MEAN_ANOMALY   = 35.2193

EPHEMERIS_TYPE = 0
CLASSIFICATION_TYPE = U
NORAD_CAT_ID   = 66841
ELEMENT_SET_NO = 999
REV_AT_EPOCH   = 538
BSTAR          = -.4118122E-1
MEAN_MOTION_DOT = -.1996356E-1
MEAN_MOTION_DDOT = 0

CCSDS_OMM_VERS = 2.0
CREATION_DATE  = 
ORIGINATOR     = 

OBJECT_NAME    = STARLINK-35769
OBJECT_ID      = 2025-280X
CENTER_NAME    = EARTH
REF_FRAME      = TEME
TIME_SYSTEM    = UTC
MEAN_ELEMENT_THEORY = SGP/SGP4

EPOCH          = 2025-12-27T20:56:14.373312
MEAN_MOTION    = 15.52553464
ECCENTRICITY   = .0003004
INCLINATION    = 70.0006
RA_OF_ASC_NODE = 156.9176
ARG_OF_PERICENTER = 287.1658
MEAN_ANOMALY   = 72.9200

EPHEMERIS_TYPE = 0
CLASSIFICATION_TYPE = U
NORAD_CAT_ID   = 66842
ELEMENT_SET_NO = 999
REV_AT_EPOCH   = 528
BSTAR          = .16504E-2
MEAN_MOTION_DOT = .102812E-2
MEAN_MOTION_DDOT = 0

CCSDS_OMM_VERS = 2.0
CREATION_DATE  = 
ORIGINATOR     = 

OBJECT_NAME    = STARLINK-35997
OBJECT_ID      = 2025-280Y
CENTER_NAME    = EARTH
REF_FRAME      = TEME
TIME_SYSTEM    = UTC
MEAN_ELEMENT_THEORY = SGP/SGP4

EPOCH          = 2025-12-28T00:00:02.000160
MEAN_MOTION    = 15.52539702
ECCENTRICITY   = .00032443
INCLINATION    = 70.0004
RA_OF_ASC_NODE = 156.5638
ARG_OF_PERICENTER = 276.3159
MEAN_ANOMALY   = 80.7662

EPHEMERIS_TYPE = 0
CLASSIFICATION_TYPE = U
NORAD_CAT_ID   = 66843
ELEMENT_SET_NO = 999
REV_AT_EPOCH   = 534
BSTAR          = -.59348266E-3
MEAN_MOTION_DOT = -.36539E-3
MEAN_MOTION_DDOT = 0

CCSDS_OMM_VERS = 2.0
CREATION_DATE  = 
ORIGINATOR     = 

OBJECT_NAME    = STARLINK-36073
OBJECT_ID      = 2025-280Z
CENTER_NAME    = EARTH
REF_FRAME      = TEME
TIME_SYSTEM    = UTC
MEAN_ELEMENT_THEORY = SGP/SGP4

EPOCH          = 2025-12-28T06:00:02.000160
MEAN_MOTION    = 15.51567601
ECCENTRICITY   = .00036726
INCLINATION    = 70.0003
RA_OF_ASC_NODE = 155.8825
ARG_OF_PERICENTER = 268.9081
MEAN_ANOMALY   = 42.7734

EPHEMERIS_TYPE = 0
CLASSIFICATION_TYPE = U
NORAD_CAT_ID   = 66844
ELEMENT_SET_NO = 999
REV_AT_EPOCH   = 538
BSTAR          = -.38121131E-1
MEAN_MOTION_DOT = -.2025157E-1
MEAN_MOTION_DDOT = 0

