STARLINK-35858          
1 66833U 25280N   25362.26205350  .00178124  00000+0  28272-2 0  9999
2 66833  70.0000 155.8723 0003352 270.3593  89.7210 15.52582349  5341
STARLINK-35840          
1 66834U 25280P   25362.00002315 -.00106857  00000+0 -17543-2 0  9993
2 66834  69.9999 156.5869 0003307 277.3529  60.5582 15.52570768  5342
STARLINK-35890          
1 66835U 25280Q   25362.25002315 -.01841233  00000+0 -33617-1 0  9995
2 66835  70.0000 155.9009 0003615 272.5296  24.1411 15.52641794  5387
STARLINK-35838          
1 66836U 25280R   25362.00002315 -.00604230  00000+0 -10498-1 0  9994
2 66836  70.0001 156.5827 0003469 277.2305  64.4786 15.52749710  5349
STARLINK-35729          
1 66837U 25280S   25361.61605859 -.00574104  00000+0 -98165-2 0  9997
2 66837  70.0006 157.6293 0004565 276.0248  84.0419 15.53075151  5247
STARLINK-35886          
1 66838U 25280T   25361.80889976 -.00918950  00000+0 -16720-1 0  9990
2 66838  70.0006 157.0978 0003181 273.6626  86.4197 15.52093425  5273
STARLINK-35717          
1 66839U 25280U   25362.00002315 -.00406266  00000+0 -69042-2 0  9996
2 66839  70.0001 156.5778 0003641 278.5963  66.9636 15.52674805  5346
STARLINK-35837          
1 66840U 25280V   25362.25002315 -.02004064  00000+0 -41358-1 0  9996
2 66840  69.9999 155.8921 0003288 269.8702  31.4546 15.48957484  5387
STARLINK-35715          
1 66841U 25280W   25362.25002315 -.01996356  00000+0 -41181-1 0  9994
2 66841  70.0004 155.8900 0003354 268.0355  35.2193 15.48956015  5383
STARLINK-35769          
1 66842U 25280X   25361.87238858  .00102812  00000+0  16504-2 0  9990
2 66842  70.0006 156.9176 0003004 287.1658  72.9200 15.52553464  5285
STARLINK-35997          
1 66843U 25280Y   25362.00002315 -.00036539  00000+0 -59348-3 0  9992
2 66843  70.0004 156.5638 0003244 276.3159  80.7662 15.52539702  5340
STARLINK-36073          
1 66844U 25280Z   25362.25002315 -.02025157  00000+0 -38121-1 0  9990
2 66844  70.0003 155.8825 0003672 268.9081  42.7734 15.51567601  5386
